SIRION PATHFINDER-2     
1 43759U 18099B   26140.10018383  .00003352  00000+0  18665-3 0  9993
2 43759  97.4266 189.8280 0009759  46.3450 313.8589 15.14261771408376
CORVUS BC4              
1 43767U 18099K   26140.53206961  .00003206  00000+0  18897-3 0  9995
2 43767  97.4085 184.3242 0010090  97.0031 263.2348 15.12241311408221
M2 PATHFINDER           
1 45727U 20037E   26140.51415250  .00000978  00000+0  74278-4 0  9998
2 45727  97.8158 331.4369 0009999 242.7034 117.3174 15.04539315321334
NETSAT-4                
1 46504U 20068U   26140.50495120  .00012974  00000+0  29765-3 0  9998
2 46504  97.8615 146.5440 0007330  70.5726 289.6311 15.42850663311501
NETSAT-3                
1 46505U 20068V   26140.48959671  .00013386  00000+0  31977-3 0  9998
2 46505  97.8666 144.7796 0007408  83.4393 276.7696 15.41625957311419
NETSAT-1                
1 46506U 20068W   26140.41733252  .00009316  00000+0  28657-3 0  9996
2 46506  97.8753 139.3545 0006996 103.4241 256.7780 15.33892517311045
NETSAT-2                
1 46507U 20068X   26140.45112712  .00016356  00000+0  35203-3 0  9990
2 46507  97.8630 146.2852 0006270  93.6040 266.5924 15.44700262311451
GREENCUBE (IO-117)      
1 53109U 22080E   26140.48101737 -.00000003  00000+0  00000+0 0  9996
2 53109  70.1431 307.8842 0008838 296.2012  63.7739  6.42583336 90281
SITRO-AIS 5 (KATYS)     
1 57176U 23091L   26140.51977378  .00008479  00000+0  30559-3 0  9993
2 57176  97.5069 204.1687 0011464 192.0124 168.0844 15.28742662160110
SITRO-AIS 6 (CHIRKIN)   
1 57192U 23091AC  26140.50159216  .00006974  00000+0  27903-3 0  9990
2 57192  97.5077 203.4135 0011609 195.4279 164.6606 15.25344745160065
SITRO-AIS 8 (ANOKHIN)   
1 57193U 23091AD  26140.51871922  .00010285  00000+0  34218-3 0  9994
2 57193  97.5064 205.6467 0010773 187.5940 172.5140 15.31296807160212
SITRO-AIS 7 (FARTUSHNIY)
1 57194U 23091AE  26140.49919786  .00006745  00000+0  27240-3 0  9996
2 57194  97.5074 203.2501 0011402 196.4926 163.5942 15.25046336160055
SITRO-AIS 10 (BURDAEV)  
1 57199U 23091AK  26140.46859980  .00014335  00000+0  39205-3 0  9995
2 57199  97.5087 210.3713 0007700 161.6466 198.5057 15.37448198160507
SITRO-AIS 9 (SHCHUKIN)  
1 57201U 23091AM  26140.48651543  .00014157  00000+0  39290-3 0  9992
2 57201  97.5085 210.1407 0007910 162.0730 198.0794 15.36992392160499
SITRO-AIS 12 (SMIRENNIY)
1 57204U 23091AQ  26140.41722609  .00014419  00000+0  39652-3 0  9993
2 57204  97.5098 210.5199 0007672 156.8079 203.3513 15.37276232160500
SITRO-AIS 11 (SHEFFER)  
1 57208U 23091AU  26140.50315058  .00014508  00000+0  39386-3 0  9996
2 57208  97.5095 210.8374 0007592 156.4565 203.7029 15.37676245160533
SITRO-AIS 25            
1 59066U 24039R   26140.50297633  .00002944  00000+0  22963-3 0  9995
2 59066  95.3916 216.0708 0147193  65.3477 296.2997 14.93308154120591
SITRO-AIS 26            
1 59067U 24039S   26140.50061039  .00002987  00000+0  23400-3 0  9999
2 59067  95.3917 215.9725 0147519  65.8981 295.7595 14.93109915120588
SITRO-AIS 27            
1 59068U 24039T   26140.54556610  .00003282  00000+0  25475-3 0  9991
2 59068  95.3915 216.2624 0146470  64.4464 297.1821 14.93520438120614
SITRO-AIS 28            
1 59071U 24039U   26140.38964390  .00002734  00000+0  21250-3 0  9993
2 59071  95.3918 216.2010 0146336  64.7973 296.8343 14.93555214120591
GRBBETA                 
1 60237U 24128C   26140.47596126  .00002855  00000+0  20338-3 0  9996
2 60237  61.9903 313.4738 0044452 128.9324 231.5745 15.06384176102095
OOV-CUBE (TUBSAT-30)    
1 60240U 24128F   26140.50697815  .00001543  00000+0  12840-3 0  9993
2 60240  61.9944 322.0825 0048116 127.7411 232.8055 15.02614414101951
ROBUSTA-3A (MEDITERRAN*)
1 60243U 24128J   26140.48136337  .00005794  00000+0  34820-3 0  9994
2 60243  61.9869 306.1890 0045285 122.7286 237.8187 15.11189952102231
LASARSAT                
1 62391U 24247Q   26140.18172240  .00023734  00000+0  50705-3 0  9996
2 62391  44.9759  59.3627 0005684 171.8355 188.2628 15.44470942 78983
CROCUBE                 
1 62394U 24247T   26140.14683537  .00026334  00000+0  53126-3 0  9990
2 62394  44.9733  57.3164 0005420 174.7904 185.3043 15.46099852 79004
FORESAIL-1 PRIME        
1 66778U 25276DS  26140.45292149  .00003095  00000+0  15371-3 0  9991
2 66778  97.4206 214.2361 0002499 165.2765 194.8542 15.18414988 26199
KNACKSAT-2              
1 67683U 98067XZ  26140.07539703  .00035425  00000+0  47884-3 0  9999
2 67683  51.6305  75.5950 0012132  96.2152 264.0222 15.57316525 15898
